KNACKSAT-2              
1 67683U 98067XZ  26074.90867292  .00038745  00000+0  62706-3 0  9992
2 67683  51.6312  40.9357 0009638 207.7517 152.2960 15.52379780  5752
GXIBA-1                 
1 67684U 98067YA  26074.93460682  .00075308  00000+0  10787-2 0  9995
2 67684  51.6302  40.3592 0011534 197.4309 162.6288 15.55425498  5769
CORAL                   
1 67685U 98067YB  26074.19471975  .00051896  00000+0  82451-3 0  9995
2 67685  51.6319  44.4177 0011534 201.7026 158.3476 15.52739690  5644
ISS OBJECT YC           
1 67686U 98067YC  26074.89472385  .00050583  00000+0  78390-3 0  9998
2 67686  51.6316  40.8451 0008323 173.1262 186.9844 15.53475021  5757
LEOPARD                 
1 67687U 98067YD  26074.96993919  .00037658  00000+0  60567-3 0  9993
2 67687  51.6315  40.5968 0008155 177.1771 182.9267 15.52581437  5684
ISS OBJECT YE           
1 67688U 98067YE  26074.19056187  .00057311  00000+0  89873-3 0  9995
2 67688  51.6315  44.3921 0008255 171.8524 188.2602 15.53094941  5563
CREW DRAGON 12          
1 67796U 26031A   26074.83790868  .00008038  00000+0  15762-3 0  9997
2 67796  51.6331  41.9615 0006336 194.9995 165.0806 15.48299420557182
